[{"OBJECT_NAME":"STARLINK-34964","OBJECT_ID":"2025-179E","EPOCH":"2026-03-09T16:34:15.186720","MEAN_MOTION":15.05664519,"ECCENTRICITY":0.00012328,"INCLINATION":97.6023,"RA_OF_ASC_NODE":112.8903,"ARG_OF_PERICENTER":134.1266,"MEAN_ANOMALY":226.0062,"EPHEMERIS_TYPE":0,"CLASSIFICATION_TYPE":"U","NORAD_CAT_ID":65239,"ELEMENT_SET_NO":999,"REV_AT_EPOCH":3181,"BSTAR":0.00028840105,"MEAN_MOTION_DOT":4.105e-5,"MEAN_MOTION_DDOT":0},{"OBJECT_NAME":"CZ-6A DEB","OBJECT_ID":"2022-151AJB","EPOCH":"2026-02-27T14:06:27.470880","MEAN_MOTION":15.13235807,"ECCENTRICITY":0.00651829,"INCLINATION":98.7617,"RA_OF_ASC_NODE":191.4844,"ARG_OF_PERICENTER":85.1472,"MEAN_ANOMALY":275.7194,"EPHEMERIS_TYPE":0,"CLASSIFICATION_TYPE":"U","NORAD_CAT_ID":58433,"ELEMENT_SET_NO":999,"REV_AT_EPOCH":15167,"BSTAR":0.0027921214,"MEAN_MOTION_DOT":0.00052525,"MEAN_MOTION_DDOT":0}]
